NORAD_CAT_ID,OBJECT_NAME,OBJECT_TYPE,EPOCH,MEAN_MOTION,ECCENTRICITY,INCLINATION,RA_OF_ASC_NODE,ARG_OF_PERICENTER,MEAN_ANOMALY,BSTAR,MEAN_MOTION_DOT,MEAN_MOTION_DDOT,TLE_LINE0,TLE_LINE1,TLE_LINE2,SEMIMAJOR_AXIS,PERIOD,APOGEE,PERIGEE,DECAYED
52986.0,STARLINK-4260,PAYLOAD,2024-03-27 21:29:45,15.08827295,0.000192,53.2197,49.4854,93.6956,266.4256,0.00032683,4.915e-05,0.0,0 STARLINK-4260,1 52986U 22076A   24087.89566625  .00004915  00000-0  32683-3 0  9999,2 52986  53.2197  49.4854 0001920  93.6956 266.4256 15.08827295 95858,6917.919,95.438,541.112,538.456,0.0
52986.0,STARLINK-4260,PAYLOAD,2024-03-28 07:02:04,15.08846783,0.0001646,53.2192,47.7024,112.6154,247.5012,4.7102e-05,4.62e-06,0.0,0 STARLINK-4260,1 52986U 22076A   24088.29310298  .00000462  00000-0  47102-4 0  9993,2 52986  53.2192  47.7024 0001646 112.6154 247.5012 15.08846783 95910,6917.86,95.437,540.863,538.586,0.0
52986.0,STARLINK-4260,PAYLOAD,2024-03-29 02:06:41,15.08847697,0.0001699,53.2197,44.1334,113.8182,246.2988,-0.00017995,-3.151e-05,0.0,0 STARLINK-4260,1 52986U 22076A   24089.08798373 -.00003151  00000-0 -17995-3 0  9991,2 52986  53.2197  44.1334 0001699 113.8182 246.2988 15.08847697 95566,6917.857,95.437,540.897,538.547,0.0
52986.0,STARLINK-4260,PAYLOAD,2024-03-29 21:11:19,15.0882944,0.0001406,53.2196,40.5619,122.873,237.2398,0.00015043,2.106e-05,0.0,0 STARLINK-4260,1 52986U 22076A   24089.88286362  .00002106  00000-0  15043-3 0  9998,2 52986  53.2196  40.5619 0001406 122.8730 237.2398 15.08829440 96153,6917.913,95.438,540.75,538.805,0.0
52986.0,STARLINK-4260,PAYLOAD,2024-03-30 13:05:10,15.08844429,0.0001115,53.2185,37.5916,78.8651,281.2466,4.6866e-05,4.58e-06,0.0,0 STARLINK-4260,1 52986U 22076A   24090.54525895  .00000458  00000-0  46866-4 0  9996,2 52986  53.2185  37.5916 0001115  78.8651 281.2466 15.08844429 96256,6917.867,95.437,540.503,538.961,0.0
52986.0,STARLINK-4260,PAYLOAD,2024-03-30 21:02:07,15.08828384,0.0001732,53.2199,36.1104,104.5387,255.5797,1.467e-05,-5.5e-07,0.0,0 STARLINK-4260,1 52986U 22076A   24090.87647493 -.00000055  00000-0  14670-4 0  9993,2 52986  53.2199  36.1104 0001732 104.5387 255.5797 15.08828384 96302,6917.916,95.438,540.979,538.583,0.0
52986.0,STARLINK-4260,PAYLOAD,2024-03-31 03:23:40,15.08821441,0.0001539,53.2205,34.9216,109.4887,250.6271,-4.4232e-05,-9.91e-06,0.0,0 STARLINK-4260,1 52986U 22076A   24091.14144301 -.00000991  00000-0 -44232-4 0  9991,2 52986  53.2205  34.9216 0001539 109.4887 250.6271 15.08821441 96348,6917.937,95.439,540.867,538.737,0.0
52986.0,STARLINK-4260,PAYLOAD,2024-03-31 12:55:58,15.08831838,0.0001519,53.2208,33.1346,108.8152,251.3005,4.5092e-05,4.3e-06,0.0,0 STARLINK-4260,1 52986U 22076A   24091.53887611  .00000430  00000-0  45092-4 0  9993,2 52986  53.2208  33.1346 0001519 108.8152 251.3005 15.08831838 96403,6917.905,95.438,540.821,538.72,0.0
52986.0,STARLINK-4260,PAYLOAD,2024-03-31 20:52:53,15.08846663,0.000119,53.219,31.6457,87.3667,272.7461,0.00011051,1.472e-05,0.0,0 STARLINK-4260,1 52986U 22076A   24091.87006623  .00001472  00000-0  11051-3 0  9990,2 52986  53.2190  31.6457 0001190  87.3667 272.7461 15.08846663 96456,6917.86,95.437,540.548,538.902,0.0
52986.0,STARLINK-4260,PAYLOAD,2024-04-01 04:49:48,15.08860813,0.0001285,53.2185,30.1603,98.8414,261.2724,0.00040646,6.19e-05,0.0,0 STARLINK-4260,1 52986U 22076A   24092.20125910  .00006190  00000-0  40646-3 0  9993,2 52986  53.2185  30.1603 0001285  98.8414 261.2724 15.08860813 96503,6917.817,95.436,540.571,538.793,0.0
52986.0,STARLINK-4260,PAYLOAD,2024-04-01 12:46:44,15.08852087,0.0001475,53.219,28.6728,83.7823,276.3337,0.0002943,4.4e-05,0.0,0 STARLINK-4260,1 52986U 22076A   24092.53246378  .00004400  00000-0  29430-3 0  9991,2 52986  53.2190  28.6728 0001475  83.7823 276.3337 15.08852087 96553,6917.843,95.437,540.729,538.688,0.0
52986.0,STARLINK-4260,PAYLOAD,2024-04-02 04:40:36,15.08838544,0.0001688,53.2197,25.6993,81.8904,278.2279,0.00016208,2.292e-05,0.0,0 STARLINK-4260,1 52986U 22076A   24093.19486996  .00002292  00000-0  16208-3 0  9992,2 52986  53.2197  25.6993 0001688  81.8904 278.2279 15.08838544 96655,6917.885,95.438,540.918,538.582,0.0
52986.0,STARLINK-4260,PAYLOAD,2024-04-02 12:37:32,15.08838437,0.0001346,53.2185,24.2124,90.3216,269.793,3.6689e-05,2.96e-06,0.0,0 STARLINK-4260,1 52986U 22076A   24093.52606829  .00000296  00000-0  36689-4 0  9996,2 52986  53.2185  24.2124 0001346  90.3216 269.7930 15.08838437 96239,6917.885,95.438,540.681,538.819,0.0
52986.0,STARLINK-4260,PAYLOAD,2024-04-03 12:28:19,15.08848762,0.0001459,53.2191,19.7528,93.282,266.8339,-7.893e-05,-1.544e-05,0.0,0 STARLINK-4260,1 52986U 22076A   24094.51966801 -.00001544  00000-0 -78930-4 0  9999,2 52986  53.2191  19.7528 0001459  93.2820 266.8339 15.08848762 96852,6917.854,95.437,540.728,538.709,0.0
52986.0,STARLINK-4260,PAYLOAD,2024-04-03 18:49:52,15.08838815,0.0001428,53.2196,18.5622,90.0063,270.1092,0.00011805,1.591e-05,0.0,0 STARLINK-4260,1 52986U 22076A   24094.78463019  .00001591  00000-0  11805-3 0  9998,2 52986  53.2196  18.5622 0001428  90.0063 270.1092 15.08838815 96424,6917.884,95.438,540.737,538.761,0.0
52986.0,STARLINK-4260,PAYLOAD,2024-04-04 12:19:06,15.08847532,0.0001479,53.2194,15.2915,91.2273,268.8888,7.2595e-05,8.68e-06,0.0,0 STARLINK-4260,1 52986U 22076A   24095.51326493  .00000868  00000-0  72595-4 0  9994,2 52986  53.2194  15.2915 0001479  91.2273 268.8888 15.08847532 96538,6917.857,95.437,540.746,538.699,0.0
52986.0,STARLINK-4260,PAYLOAD,2024-04-04 21:51:25,15.08822346,0.0001259,53.2198,13.509,93.4468,266.6668,0.00037607,5.699e-05,0.0,0 STARLINK-4260,1 52986U 22076A   24095.91071656  .00005699  00000-0  37607-3 0  9997,2 52986  53.2198  13.5090 0001259  93.4468 266.6668 15.08822346 96597,6917.934,95.439,540.67,538.928,0.0
52986.0,STARLINK-4260,PAYLOAD,2024-04-05 04:12:57,15.08845403,0.0001609,53.2193,12.3188,90.3142,269.8034,0.00014494,2.02e-05,0.0,0 STARLINK-4260,1 52986U 22076A   24096.17566681  .00002020  00000-0  14494-3 0  9997,2 52986  53.2193  12.3188 0001609  90.3142 269.8034 15.08845403 97100,6917.864,95.437,540.842,538.616,0.0
52986.0,STARLINK-4260,PAYLOAD,2024-04-05 21:42:12,15.08845065,0.0001694,53.2189,9.047,93.2367,266.8819,6.0475e-05,6.75e-06,0.0,0 STARLINK-4260,1 52986U 22076A   24096.90430669  .00000675  00000-0  60475-4 0  9999,2 52986  53.2189   9.0470 0001694  93.2367 266.8819 15.08845065 96748,6917.865,95.437,540.902,538.558,0.0
52986.0,STARLINK-4260,PAYLOAD,2024-04-06 00:52:57,15.0885597,0.0001643,53.2197,8.451,97.6351,262.4828,-6.2368e-05,-1.281e-05,0.0,0 STARLINK-4260,1 52986U 22076A   24097.03678126 -.00001281  00000-0 -62368-4 0  9995,2 52986  53.2197   8.4510 0001643  97.6351 262.4828 15.08855970 96760,6917.832,95.437,540.833,538.56,0.0
52986.0,STARLINK-4260,PAYLOAD,2024-04-06 18:22:13,15.08838572,0.0001725,53.2205,5.1818,103.226,256.8925,3.1054e-05,2.06e-06,0.0,0 STARLINK-4260,1 52986U 22076A   24097.76542942  .00000206  00000-0  31054-4 0  9993,2 52986  53.2205   5.1818 0001725 103.2260 256.8925 15.08838572 97348,6917.885,95.438,540.943,538.556,0.0
52986.0,STARLINK-4260,PAYLOAD,2024-04-06 21:32:59,15.088358,0.0001629,53.2186,4.5857,103.4389,256.6785,-1.5971e-06,-3.13e-06,0.0,0 STARLINK-4260,1 52986U 22076A   24097.89791169 -.00000313  00000-0 -15971-5 0  9996,2 52986  53.2186   4.5857 0001629 103.4389 256.6785 15.08835800 96891,6917.893,95.438,540.885,538.631,0.0
52986.0,STARLINK-4260,PAYLOAD,2024-04-07 10:16:04,15.0884176,0.0001332,53.218,2.2087,96.0508,264.0636,-1.4872e-05,-5.25e-06,0.0,0 STARLINK-4260,1 52986U 22076A   24098.42782795 -.00000525  00000-0 -14872-4 0  9994,2 52986  53.2180   2.2087 0001332  96.0508 264.0636 15.08841760 96975,6917.875,95.437,540.661,538.819,0.0
52986.0,STARLINK-4260,PAYLOAD,2024-04-07 21:23:47,15.08835541,0.0001253,53.2177,0.1278,105.4215,254.6915,-0.00011422,-2.105e-05,0.0,0 STARLINK-4260,1 52986U 22076A   24098.89151706 -.00002105  00000-0 -11422-3 0  9990,2 52986  53.2177   0.1278 0001253 105.4215 254.6915 15.08835541 97518,6917.894,95.438,540.626,538.892,0.0
52986.0,STARLINK-4260,PAYLOAD,2024-04-07 22:59:10,15.08834766,0.0001288,53.2178,359.8304,105.4534,254.6601,-9.8315e-05,-1.852e-05,0.0,0 STARLINK-4260,1 52986U 22076A   24098.95775713 -.00001852  00000-0 -98315-4 0  9992,2 52986  53.2178 359.8304 0001288 105.4534 254.6601 15.08834766 97054,6917.896,95.438,540.652,538.87,0.0
52986.0,STARLINK-4260,PAYLOAD,2024-04-08 10:06:51,15.08843953,0.000133,53.2183,357.749,103.8678,256.2462,-1.1538e-05,-4.72e-06,0.0,0 STARLINK-4260,1 52986U 22076A   24099.42142938 -.00000472  00000-0 -11538-4 0  9991,2 52986  53.2183 357.7490 0001330 103.8678 256.2462 15.08843953 97592,6917.868,95.437,540.653,538.813,0.0
52986.0,STARLINK-4260,PAYLOAD,2024-04-08 22:49:56,15.08842004,0.0001312,53.2181,355.37,102.0795,258.0344,8.3875e-05,1.047e-05,0.0,0 STARLINK-4260,1 52986U 22076A   24099.95134964  .00001047  00000-0  83875-4 0  9999,2 52986  53.2181 355.3700 0001312 102.0795 258.0344 15.08842004 97202,6917.874,95.437,540.647,538.832,0.0
52986.0,STARLINK-4260,PAYLOAD,2024-04-09 02:00:42,15.08844601,0.0001317,53.2182,354.7753,102.112,258.0019,0.00010367,1.363e-05,0.0,0 STARLINK-4260,1 52986U 22076A   24100.08382738  .00001363  00000-0  10367-3 0  9996,2 52986  53.2182 354.7753 0001317 102.1120 258.0019 15.08844601 97228,6917.866,95.437,540.642,538.82,0.0
52986.0,STARLINK-4260,PAYLOAD,2024-04-09 22:40:44,15.08833101,0.0001368,53.2192,350.91,96.6899,263.4249,9.9397e-05,1.294e-05,0.0,0 STARLINK-4260,1 52986U 22076A   24100.94495727  .00001294  00000-0  99397-4 0  9998,2 52986  53.2192 350.9100 0001368  96.6899 263.4249 15.08833101 97351,6917.901,95.438,540.713,538.82,0.0
52986.0,STARLINK-4260,PAYLOAD,2024-04-10 09:48:25,15.08852029,0.0001284,53.2189,348.8252,75.3973,284.7161,-0.00019572,-3.402e-05,0.0,0 STARLINK-4260,1 52986U 22076A   24101.40863219 -.00003402  00000-0 -19572-3 0  9996,2 52986  53.2189 348.8252 0001284  75.3973 284.7161 15.08852029 97893,6917.844,95.437,540.597,538.82,0.0
